ORBCOMM FM24 [-]        
1 25478U 98053D   24089.65760375  .00003010  00000+0  10864-2 0  9997
2 25478  45.0070 212.4185 0002381 194.9619 165.1158 14.35440726333798
ORBCOMM FM25 [-]        
1 25479U 98053E   24089.62332298  .00002738  00000+0  99313-3 0  9997
2 25479  45.0060 210.8215 0004938 191.6133 168.4601 14.35424568333806
ORBCOMM FM26 [-]        
1 25480U 98053F   24089.61407090  .00002466  00000+0  90852-3 0  9998
2 25480  45.0056 204.8118 0007196 206.5162 153.5318 14.34898540333742
ORBCOMM FM27 [+]        
1 25481U 98053G   24089.61093652  .00002820  00000+0  10218-2 0  9995
2 25481  45.0045 211.1444 0001473 233.0465 127.0248 14.35402645333732
ORBCOMM FM28 [-]        
1 25482U 98053H   24089.47120585  .00001954  00000+0  71642-3 0  9992
2 25482  45.0041 150.4138 0005845 238.4380 121.5897 14.35848331334383
ORBCOMM FM30 [-]        
1 25980U 99065A   24089.78893875  .00002674  00000+0  97837-3 0  9996
2 25980  45.0329  29.4743 0007447 306.5634  53.4528 14.35040289271099
ORBCOMM FM31 [-]        
1 25981U 99065B   24089.54573545  .00002215  00000+0  81892-3 0  9995
2 25981  45.0242  24.3438 0004582 325.9752  34.0801 14.35045389270085
ORBCOMM FM32 [+]        
1 25982U 99065C   24089.56679449  .00002393  00000+0  89891-3 0  9992
2 25982  45.0169  37.7459 0007149 326.8780  33.1618 14.34015261270720
